CCSDS_OMM_VERS = 2.0
CREATION_DATE  = 
ORIGINATOR     = 

OBJECT_NAME    = STARLINK-35627
OBJECT_ID      = 2025-240AC
CENTER_NAME    = EARTH
REF_FRAME      = TEME
TIME_SYSTEM    = UTC
MEAN_ELEMENT_THEORY = SGP/SGP4

EPOCH          = 2025-11-06T01:12:19.029600
MEAN_MOTION    = 15.79897856
ECCENTRICITY   = .00093286
INCLINATION    = 53.1517
RA_OF_ASC_NODE = 281.0279
ARG_OF_PERICENTER = 306.7352
MEAN_ANOMALY   = 53.2813

EPHEMERIS_TYPE = 0
CLASSIFICATION_TYPE = U
NORAD_CAT_ID   = 66172
ELEMENT_SET_NO = 999
REV_AT_EPOCH   = 300
BSTAR          = .38203497E-2
MEAN_MOTION_DOT = .791269E-2
MEAN_MOTION_DDOT = 0

CCSDS_OMM_VERS = 2.0
CREATION_DATE  = 
ORIGINATOR     = 

OBJECT_NAME    = STARLINK-35634
OBJECT_ID      = 2025-240AD
CENTER_NAME    = EARTH
REF_FRAME      = TEME
TIME_SYSTEM    = UTC
MEAN_ELEMENT_THEORY = SGP/SGP4

EPOCH          = 2025-11-06T04:13:14.081952
MEAN_MOTION    = 15.77234533
ECCENTRICITY   = .00005936
INCLINATION    = 53.1521
RA_OF_ASC_NODE = 280.3897
ARG_OF_PERICENTER = 105.3766
MEAN_ANOMALY   = 254.7321

EPHEMERIS_TYPE = 0
CLASSIFICATION_TYPE = U
NORAD_CAT_ID   = 66173
ELEMENT_SET_NO = 999
REV_AT_EPOCH   = 302
BSTAR          = -.45131596E-2
MEAN_MOTION_DOT = -.697159E-2
MEAN_MOTION_DDOT = 0

CCSDS_OMM_VERS = 2.0
CREATION_DATE  = 
ORIGINATOR     = 

OBJECT_NAME    = HTV-X1
OBJECT_ID      = 2025-241A
CENTER_NAME    = EARTH
REF_FRAME      = TEME
TIME_SYSTEM    = UTC
MEAN_ELEMENT_THEORY = SGP/SGP4

EPOCH          = 2025-11-06T07:01:00.427584
MEAN_MOTION    = 15.49789706
ECCENTRICITY   = .00051238
INCLINATION    = 51.6335
RA_OF_ASC_NODE = 322.9076
ARG_OF_PERICENTER = 22.8618
MEAN_ANOMALY   = 337.2598

EPHEMERIS_TYPE = 0
CLASSIFICATION_TYPE = U
NORAD_CAT_ID   = 66174
ELEMENT_SET_NO = 999
REV_AT_EPOCH   = 145
BSTAR          = .21866297E-3
MEAN_MOTION_DOT = .11954E-3
MEAN_MOTION_DDOT = 0

CCSDS_OMM_VERS = 2.0
CREATION_DATE  = 
ORIGINATOR     = 

OBJECT_NAME    = GAOFEN-14 02
OBJECT_ID      = 2025-242A
CENTER_NAME    = EARTH
REF_FRAME      = TEME
TIME_SYSTEM    = UTC
MEAN_ELEMENT_THEORY = SGP/SGP4

EPOCH          = 2025-11-02T22:28:43.203360
MEAN_MOTION    = 15.27424189
ECCENTRICITY   = .00104839
INCLINATION    = 97.4418
RA_OF_ASC_NODE = 19.1026
ARG_OF_PERICENTER = 237.3097
MEAN_ANOMALY   = 122.7131

EPHEMERIS_TYPE = 0
CLASSIFICATION_TYPE = U
NORAD_CAT_ID   = 66175
ELEMENT_SET_NO = 999
REV_AT_EPOCH   = 119
BSTAR          = .43019643E-3
MEAN_MOTION_DOT = .11497E-3
MEAN_MOTION_DDOT = 0

CCSDS_OMM_VERS = 2.0
CREATION_DATE  = 
ORIGINATOR     = 

OBJECT_NAME    = CZ-3B R/B
OBJECT_ID      = 2025-242B
CENTER_NAME    = EARTH
REF_FRAME      = TEME
TIME_SYSTEM    = UTC
MEAN_ELEMENT_THEORY = SGP/SGP4

EPOCH          = 2025-11-05T15:49:27.402816
MEAN_MOTION    = 15.41457457
ECCENTRICITY   = .01037786
INCLINATION    = 97.4571
RA_OF_ASC_NODE = 21.8726
ARG_OF_PERICENTER = 5.1082
MEAN_ANOMALY   = 355.1197

EPHEMERIS_TYPE = 0
CLASSIFICATION_TYPE = U
NORAD_CAT_ID   = 66176
ELEMENT_SET_NO = 999
REV_AT_EPOCH   = 162
BSTAR          = .58814912E-3
MEAN_MOTION_DOT = .29904E-3
MEAN_MOTION_DDOT = 0

CCSDS_OMM_VERS = 2.0
CREATION_DATE  = 
ORIGINATOR     = 

OBJECT_NAME    = 2025-242C
OBJECT_ID      = 2025-242C
CENTER_NAME    = EARTH
REF_FRAME      = TEME
TIME_SYSTEM    = UTC
MEAN_ELEMENT_THEORY = SGP/SGP4

EPOCH          = 2025-11-06T06:00:02.000160
MEAN_MOTION    = 15.80324582
ECCENTRICITY   = .00018154
INCLINATION    = 53.1523
RA_OF_ASC_NODE = 103.2889
ARG_OF_PERICENTER = 123.4176
MEAN_ANOMALY   = 88.6715

EPHEMERIS_TYPE = 0
CLASSIFICATION_TYPE = U
NORAD_CAT_ID   = 66177
ELEMENT_SET_NO = 999
REV_AT_EPOCH   = 272
BSTAR          = -.91404904E-2
MEAN_MOTION_DOT = -.154579E-1
MEAN_MOTION_DDOT = 0

CCSDS_OMM_VERS = 2.0
CREATION_DATE  = 
ORIGINATOR     = 

OBJECT_NAME    = STARLINK-35363
OBJECT_ID      = 2025-243B
CENTER_NAME    = EARTH
REF_FRAME      = TEME
TIME_SYSTEM    = UTC
MEAN_ELEMENT_THEORY = SGP/SGP4

EPOCH          = 2025-11-06T06:00:02.000160
MEAN_MOTION    = 15.80336000
ECCENTRICITY   = .00011693
INCLINATION    = 53.1525
RA_OF_ASC_NODE = 103.2973
ARG_OF_PERICENTER = 75.9966
MEAN_ANOMALY   = 131.8388

EPHEMERIS_TYPE = 0
CLASSIFICATION_TYPE = U
NORAD_CAT_ID   = 66178
ELEMENT_SET_NO = 999
REV_AT_EPOCH   = 278
BSTAR          = -.82431439E-2
MEAN_MOTION_DOT = -.141128E-1
MEAN_MOTION_DDOT = 0

CCSDS_OMM_VERS = 2.0
CREATION_DATE  = 
ORIGINATOR     = 

OBJECT_NAME    = STARLINK-35346
OBJECT_ID      = 2025-243C
CENTER_NAME    = EARTH
REF_FRAME      = TEME
TIME_SYSTEM    = UTC
MEAN_ELEMENT_THEORY = SGP/SGP4

EPOCH          = 2025-11-06T06:00:02.000160
MEAN_MOTION    = 15.80379636
ECCENTRICITY   = .0000949
INCLINATION    = 53.1524
RA_OF_ASC_NODE = 103.3021
ARG_OF_PERICENTER = 67.7415
MEAN_ANOMALY   = 137.7777

EPHEMERIS_TYPE = 0
CLASSIFICATION_TYPE = U
NORAD_CAT_ID   = 66179
ELEMENT_SET_NO = 999
REV_AT_EPOCH   = 272
BSTAR          = -.82917745E-2
MEAN_MOTION_DOT = -.1421091E-1
MEAN_MOTION_DDOT = 0

CCSDS_OMM_VERS = 2.0
CREATION_DATE  = 
ORIGINATOR     = 

OBJECT_NAME    = STARLINK-35335
OBJECT_ID      = 2025-243D
CENTER_NAME    = EARTH
REF_FRAME      = TEME
TIME_SYSTEM    = UTC
MEAN_ELEMENT_THEORY = SGP/SGP4

EPOCH          = 2025-11-06T06:00:02.000160
MEAN_MOTION    = 15.80295027
ECCENTRICITY   = .00016269
INCLINATION    = 53.1527
RA_OF_ASC_NODE = 103.3068
ARG_OF_PERICENTER = 95.8414
MEAN_ANOMALY   = 107.6872

EPHEMERIS_TYPE = 0
CLASSIFICATION_TYPE = U
NORAD_CAT_ID   = 66180
ELEMENT_SET_NO = 999
REV_AT_EPOCH   = 272
BSTAR          = -.77325432E-2
MEAN_MOTION_DOT = -.1306756E-1
MEAN_MOTION_DDOT = 0

CCSDS_OMM_VERS = 2.0
CREATION_DATE  = 
ORIGINATOR     = 

OBJECT_NAME    = STARLINK-35342
OBJECT_ID      = 2025-243E
CENTER_NAME    = EARTH
REF_FRAME      = TEME
TIME_SYSTEM    = UTC
MEAN_ELEMENT_THEORY = SGP/SGP4

EPOCH          = 2025-11-06T06:00:02.000160
MEAN_MOTION    = 15.80366065
ECCENTRICITY   = .00010798
INCLINATION    = 53.1522
RA_OF_ASC_NODE = 103.3113
ARG_OF_PERICENTER = 74.1167
MEAN_ANOMALY   = 127.3424

EPHEMERIS_TYPE = 0
CLASSIFICATION_TYPE = U
NORAD_CAT_ID   = 66181
ELEMENT_SET_NO = 999
REV_AT_EPOCH   = 272
BSTAR          = -.8156931E-2
MEAN_MOTION_DOT = -.139983E-1
MEAN_MOTION_DDOT = 0

CCSDS_OMM_VERS = 2.0
CREATION_DATE  = 
ORIGINATOR     = 

OBJECT_NAME    = STARLINK-35333
OBJECT_ID      = 2025-243F
CENTER_NAME    = EARTH
REF_FRAME      = TEME
TIME_SYSTEM    = UTC
MEAN_ELEMENT_THEORY = SGP/SGP4

EPOCH          = 2025-11-06T06:00:02.000160
MEAN_MOTION    = 15.80479801
ECCENTRICITY   = .00014704
INCLINATION    = 53.1523
RA_OF_ASC_NODE = 103.3148
ARG_OF_PERICENTER = 75.9171
MEAN_ANOMALY   = 123.6275

EPHEMERIS_TYPE = 0
CLASSIFICATION_TYPE = U
NORAD_CAT_ID   = 66182
ELEMENT_SET_NO = 999
REV_AT_EPOCH   = 267
BSTAR          = -.80250614E-2
MEAN_MOTION_DOT = -.1386397E-1
MEAN_MOTION_DDOT = 0

CCSDS_OMM_VERS = 2.0
CREATION_DATE  = 
ORIGINATOR     = 

OBJECT_NAME    = STARLINK-35310
OBJECT_ID      = 2025-243G
CENTER_NAME    = EARTH
REF_FRAME      = TEME
TIME_SYSTEM    = UTC
MEAN_ELEMENT_THEORY = SGP/SGP4

EPOCH          = 2025-11-06T06:00:02.000160
MEAN_MOTION    = 15.80264908
ECCENTRICITY   = .00007877
INCLINATION    = 53.1526
RA_OF_ASC_NODE = 103.3206
ARG_OF_PERICENTER = 134.8491
MEAN_ANOMALY   = 62.4056

EPHEMERIS_TYPE = 0
CLASSIFICATION_TYPE = U
NORAD_CAT_ID   = 66183
ELEMENT_SET_NO = 999
REV_AT_EPOCH   = 278
BSTAR          = -.74472159E-2
MEAN_MOTION_DOT = -.1262219E-1
MEAN_MOTION_DDOT = 0

