STARLINK-35627          
1 66172U 25240AC  25310.05022025  .00791269  00000+0  38203-2 0  9993
2 66172  53.1517 281.0279 0009328 306.7352  53.2813 15.79897856  3003
STARLINK-35634          
1 66173U 25240AD  25310.17585743 -.00697159  00000+0 -45132-2 0  9992
2 66173  53.1521 280.3897 0000593 105.3766 254.7321 15.77234533  3023
HTV-X1                  
1 66174U 25241A   25310.29236606  .00011954  00000+0  21866-3 0  9998
2 66174  51.6335 322.9076 0005123  22.8618 337.2598 15.49789706  1459
GAOFEN-14 02            
1 66175U 25242A   25306.93661115  .00011497  00000+0  43020-3 0  9991
2 66175  97.4418  19.1026 0010483 237.3097 122.7131 15.27424189  1197
CZ-3B R/B               
1 66176U 25242B   25309.65934494  .00029904  00000+0  58815-3 0  9997
2 66176  97.4571  21.8726 0103778   5.1082 355.1197 15.41457457  1622
STARLINK-35352          
1 66177U 25243A   25310.25002315 -.01545790  00000+0 -91405-2 0  9995
2 66177  53.1523 103.2889 0001815 123.4176  88.6715 15.80324582  2722
STARLINK-35363          
1 66178U 25243B   25310.25002315 -.01411280  00000+0 -82431-2 0  9991
2 66178  53.1525 103.2973 0001169  75.9966 131.8388 15.80336000  2780
STARLINK-35346          
1 66179U 25243C   25310.25002315 -.01421091  00000+0 -82918-2 0  9993
2 66179  53.1524 103.3021 0000949  67.7415 137.7777 15.80379636  2721
STARLINK-35335          
1 66180U 25243D   25310.25002315 -.01306756  00000+0 -77325-2 0  9991
2 66180  53.1527 103.3068 0001626  95.8414 107.6872 15.80295027  2724
STARLINK-35342          
1 66181U 25243E   25310.25002315 -.01399830  00000+0 -81569-2 0  9992
2 66181  53.1522 103.3113 0001079  74.1167 127.3424 15.80366065  2721
STARLINK-35333          
1 66182U 25243F   25310.25002315 -.01386397  00000+0 -80251-2 0  9994
2 66182  53.1523 103.3148 0001470  75.9171 123.6275 15.80479801  2670
STARLINK-35310          
1 66183U 25243G   25310.25002315 -.01262219  00000+0 -74472-2 0  9999
2 66183  53.1526 103.3206 0000787 134.8491  62.4056 15.80264908  2788
